[{"OBJECT_NAME":"SHERPA-LTC2","OBJECT_ID":"2022-107BG","EPOCH":"2026-03-09T17:14:31.494912","MEAN_MOTION":14.68527555,"ECCENTRICITY":0.0397806,"INCLINATION":53.2359,"RA_OF_ASC_NODE":281.0426,"ARG_OF_PERICENTER":308.3547,"MEAN_ANOMALY":48.2298,"EPHEMERIS_TYPE":0,"CLASSIFICATION_TYPE":"U","NORAD_CAT_ID":53754,"ELEMENT_SET_NO":999,"REV_AT_EPOCH":18792,"BSTAR":0.0002221958,"MEAN_MOTION_DOT":4.161e-5,"MEAN_MOTION_DDOT":0},{"OBJECT_NAME":"PEGASUS DEB","OBJECT_ID":"1994-029AFD","EPOCH":"2026-03-09T13:52:28.077600","MEAN_MOTION":14.64924575,"ECCENTRICITY":0.0184481,"INCLINATION":81.9461,"RA_OF_ASC_NODE":171.1004,"ARG_OF_PERICENTER":322.7223,"MEAN_ANOMALY":96.435,"EPHEMERIS_TYPE":0,"CLASSIFICATION_TYPE":"U","NORAD_CAT_ID":39318,"ELEMENT_SET_NO":999,"REV_AT_EPOCH":26349,"BSTAR":0.00019214,"MEAN_MOTION_DOT":1.341e-5,"MEAN_MOTION_DDOT":0}]
